{"type": "FeatureCollection", "features": [ {"type": "Feature", "properties": {"norad_id": 40115, "name": "WORLDVIEW-3 (WV-3)", "group": "resource", "lat": 42.008887683427524, "lon": 48.65385843424217, "alt_km": 611.443153209203, "timestamp": "2025-12-09T11:33:54.457502+00:00", "meta": {"OBJECT_NAME": "WORLDVIEW-3 (WV-3)", "OBJECT_ID": "2014-048A", "EPOCH": "2025-12-09T04:54:28.190880", "MEAN_MOTION": 14.85496864, "ECCENTRICITY": 0.0004485, "INCLINATION": 97.8619, "RA_OF_ASC_NODE": 55.5292, "ARG_OF_PERICENTER": 196.9375, "MEAN_ANOMALY": 163.1691, "EPHEMERIS_TYPE": 0, "CLASSIFICATION_TYPE": "U", "NORAD_CAT_ID": 40115, "ELEMENT_SET_NO": 999, "REV_AT_EPOCH": 61371, "BSTAR": 0.0002136, "MEAN_MOTION_DOT": 1.79e-05, "MEAN_MOTION_DDOT": 0}, "tle": {"line1": "1 40115U 14048A   25343.20449295  .00001790  00000+0  21360-3 0  9991", "line2": "2 40115  97.8619  55.5292 0004485 196.9375 163.1691 14.85496864613712"}}, "geometry": {"type": "Point", "coordinates": [48.65385843424217, 42.008887683427524]}}, {"type": "Feature", "properties": {"norad_id": 40118, "name": "GAOFEN-2", "group": "resource", "lat": -79.09511188377783, "lon": 89.8288592373262, "alt_km": 640.1599583281259, "timestamp": "2025-12-09T11:33:54.457513+00:00", "meta": {"OBJECT_NAME": "GAOFEN-2", "OBJECT_ID": "2014-049A", "EPOCH": "2025-12-09T05:27:01.966176", "MEAN_MOTION": 14.80598694, "ECCENTRICITY": 0.0008429, "INCLINATION": 98.0386, "RA_OF_ASC_NODE": 42.3894, "ARG_OF_PERICENTER": 122.4657, "MEAN_ANOMALY": 237.7371, "EPHEMERIS_TYPE": 0, "CLASSIFICATION_TYPE": "U", "NORAD_CAT_ID": 40118, "ELEMENT_SET_NO": 999, "REV_AT_EPOCH": 61112, "BSTAR": 0.00013662, "MEAN_MOTION_DOT": 9.95e-06, "MEAN_MOTION_DDOT": 0}, "tle": {"line1": "1 40118U 14049A   25343.22710609  .00000995  00000+0  13662-3 0  9999", "line2": "2 40118  98.0386  42.3894 0008429 122.4657 237.7371 14.80598694611125"}}, "geometry": {"type": "Point", "coordinates": [89.8288592373262, -79.09511188377783]}}, {"type": "Feature", "properties": {"norad_id": 40143, "name": "YAOGAN-21", "group": "resource", "lat": 79.94262611611936, "lon": -107.80162276469552, "alt_km": 482.82187941134, "timestamp": "2025-12-09T11:33:54.457523+00:00", "meta": {"OBJECT_NAME": "YAOGAN-21", "OBJECT_ID": "2014-053A", "EPOCH": "2025-12-09T04:50:11.898240", "MEAN_MOTION": 15.23611757, "ECCENTRICITY": 0.0009918, "INCLINATION": 97.1756, "RA_OF_ASC_NODE": 26.668, "ARG_OF_PERICENTER": 52.2189, "MEAN_ANOMALY": 307.9946, "EPHEMERIS_TYPE": 0, "CLASSIFICATION_TYPE": "U", "NORAD_CAT_ID": 40143, "ELEMENT_SET_NO": 999, "REV_AT_EPOCH": 62600, "BSTAR": 0.00034791, "MEAN_MOTION_DOT": 8.276e-05, "MEAN_MOTION_DDOT": 0}, "tle": {"line1": "1 40143U 14053A   25343.20152660  .00008276  00000+0  34791-3 0  9993", "line2": "2 40143  97.1756  26.6680 0009918  52.2189 307.9946 15.23611757626001"}}, "geometry": {"type": "Point", "coordinates": [-107.80162276469552, 79.94262611611936]}}, {"type": "Feature", "properties": {"norad_id": 40275, "name": "YAOGAN-22", "group": "resource", "lat": -28.237735981231904, "lon": -58.9959044858752, "alt_km": 1204.426927919566, "timestamp": "2025-12-09T11:33:54.457534+00:00", "meta": {"OBJECT_NAME": "YAOGAN-22", "OBJECT_ID": "2014-063A", "EPOCH": "2025-12-08T23:33:20.208960", "MEAN_MOTION": 13.15522481, "ECCENTRICITY": 0.000593, "INCLINATION": 100.742, "RA_OF_ASC_NODE": 126.3479, "ARG_OF_PERICENTER": 257.3638, "MEAN_ANOMALY": 102.681, "EPHEMERIS_TYPE": 0, "CLASSIFICATION_TYPE": "U", "NORAD_CAT_ID": 40275, "ELEMENT_SET_NO": 999, "REV_AT_EPOCH": 53480, "BSTAR": 0.00011571, "MEAN_MOTION_DOT": -3e-08, "MEAN_MOTION_DDOT": 0}, "tle": {"line1": "1 40275U 14063A   25342.98148390 -.00000003  00000+0  11571-3 0  9991", "line2": "2 40275 100.7420 126.3479 0005930 257.3638 102.6810 13.15522481534807"}}, "geometry": {"type": "Point", "coordinates": [-58.9959044858752, -28.237735981231904]}}, {"type": "Feature", "properties": {"norad_id": 40298, "name": "ASNARO", "group": "resource", "lat": -14.084444976161429, "lon": -122.35161428080652, "alt_km": 510.7584971066499, "timestamp": "2025-12-09T11:33:54.457544+00:00", "meta": {"OBJECT_NAME": "ASNARO", "OBJECT_ID": "2014-070A", "EPOCH": "2025-12-09T04:23:29.725152", "MEAN_MOTION": 15.19377378, "ECCENTRICITY": 0.00054, "INCLINATION": 97.3651, "RA_OF_ASC_NODE": 59.2166, "ARG_OF_PERICENTER": 131.5612, "MEAN_ANOMALY": 228.6086, "EPHEMERIS_TYPE": 0, "CLASSIFICATION_TYPE": "U", "NORAD_CAT_ID": 40298, "ELEMENT_SET_NO": 999, "REV_AT_EPOCH": 61515, "BSTAR": 0.0007024, "MEAN_MOTION_DOT": 0.00014815, "MEAN_MOTION_DDOT": 0}, "tle": {"line1": "1 40298U 14070A   25343.18298293  .00014815  00000+0  70240-3 0  9998", "line2": "2 40298  97.3651  59.2166 0005400 131.5612 228.6086 15.19377378615154"}}, "geometry": {"type": "Point", "coordinates": [-122.35161428080652, -14.084444976161429]}}, {"type": "Feature", "properties": {"norad_id": 40310, "name": "YAOGAN-24", "group": "resource", "lat": -46.463244976076986, "lon": 123.20226569683217, "alt_km": 658.131093600382, "timestamp": "2025-12-09T11:33:54.457554+00:00", "meta": {"OBJECT_NAME": "YAOGAN-24", "OBJECT_ID": "2014-072A", "EPOCH": "2025-12-09T05:16:16.851072", "MEAN_MOTION": 14.76165926, "ECCENTRICITY": 0.0014576, "INCLINATION": 98.1225, "RA_OF_ASC_NODE": 114.2941, "ARG_OF_PERICENTER": 148.6778, "MEAN_ANOMALY": 211.5303, "EPHEMERIS_TYPE": 0, "CLASSIFICATION_TYPE": "U", "NORAD_CAT_ID": 40310, "ELEMENT_SET_NO": 999, "REV_AT_EPOCH": 59569, "BSTAR": 0.00023588, "MEAN_MOTION_DOT": 1.58e-05, "MEAN_MOTION_DDOT": 0}, "tle": {"line1": "1 40310U 14072A   25343.21963948  .00001580  00000+0  23588-3 0  9993", "line2": "2 40310  98.1225 114.2941 0014576 148.6778 211.5303 14.76165926595699"}}, "geometry": {"type": "Point", "coordinates": [123.20226569683217, -46.463244976076986]}}, {"type": "Feature", "properties": {"norad_id": 40336, "name": "CBERS 4", "group": "resource", "lat": 10.178015746202224, "lon": -136.88241083344533, "alt_km": 774.227413374675, "timestamp": "2025-12-09T11:33:54.457564+00:00", "meta": {"OBJECT_NAME": "CBERS 4", "OBJECT_ID": "2014-079A", "EPOCH": "2025-12-09T04:05:10.951296", "MEAN_MOTION": 14.35515207, "ECCENTRICITY": 0.0001557, "INCLINATION": 98.331, "RA_OF_ASC_NODE": 41.3092, "ARG_OF_PERICENTER": 116.659, "MEAN_ANOMALY": 243.4755, "EPHEMERIS_TYPE": 0, "CLASSIFICATION_TYPE": "U", "NORAD_CAT_ID": 40336, "ELEMENT_SET_NO": 999, "REV_AT_EPOCH": 57669, "BSTAR": 3.1279e-05, "MEAN_MOTION_DOT": 4.8e-07, "MEAN_MOTION_DDOT": 0}, "tle": {"line1": "1 40336U 14079A   25343.17026564  .00000048  00000+0  31279-4 0  9992", "line2": "2 40336  98.3310  41.3092 0001557 116.6590 243.4755 14.35515207576693"}}, "geometry": {"type": "Point", "coordinates": [-136.88241083344533, 10.178015746202224]}}, {"type": "Feature", "properties": {"norad_id": 40362, "name": "YAOGAN-26", "group": "resource", "lat": -10.54342056852433, "lon": -14.40539076047323, "alt_km": 450.02384079164403, "timestamp": "2025-12-09T11:33:54.457575+00:00", "meta": {"OBJECT_NAME": "YAOGAN-26", "OBJECT_ID": "2014-088A", "EPOCH": "2025-12-09T03:48:33.604128", "MEAN_MOTION": 15.39105356, "ECCENTRICITY": 0.0006746, "INCLINATION": 97.0644, "RA_OF_ASC_NODE": 343.9604, "ARG_OF_PERICENTER": 38.9797, "MEAN_ANOMALY": 321.1935, "EPHEMERIS_TYPE": 0, "CLASSIFICATION_TYPE": "U", "NORAD_CAT_ID": 40362, "ELEMENT_SET_NO": 999, "REV_AT_EPOCH": 60839, "BSTAR": 0.00066436, "MEAN_MOTION_DOT": 0.00025735, "MEAN_MOTION_DDOT": 0}, "tle": {"line1": "1 40362U 14088A   25343.15872227  .00025735  00000+0  66436-3 0  9996", "line2": "2 40362  97.0644 343.9604 0006746  38.9797 321.1935 15.39105356608390"}}, "geometry": {"type": "Point", "coordinates": [-14.40539076047323, -10.54342056852433]}}, {"type": "Feature", "properties": {"norad_id": 40376, "name": "SMAP", "group": "resource", "lat": 45.86211487436912, "lon": -20.217921497625536, "alt_km": 677.7898965713275, "timestamp": "2025-12-09T11:33:54.457585+00:00", "meta": {"OBJECT_NAME": "SMAP", "OBJECT_ID": "2015-003A", "EPOCH": "2025-12-09T03:08:53.559744", "MEAN_MOTION": 14.63337369, "ECCENTRICITY": 0.0001206, "INCLINATION": 98.1291, "RA_OF_ASC_NODE": 347.907, "ARG_OF_PERICENTER": 88.3513, "MEAN_ANOMALY": 271.7827, "EPHEMERIS_TYPE": 0, "CLASSIFICATION_TYPE": "U", "NORAD_CAT_ID": 40376, "ELEMENT_SET_NO": 999, "REV_AT_EPOCH": 57982, "BSTAR": 0.00017918, "MEAN_MOTION_DOT": 8.78e-06, "MEAN_MOTION_DDOT": 0}, "tle": {"line1": "1 40376U 15003A   25343.13117546  .00000878  00000+0  17918-3 0  9995", "line2": "2 40376  98.1291 347.9070 0001206  88.3513 271.7827 14.63337369579829"}}, "geometry": {"type": "Point", "coordinates": [-20.217921497625536, 45.86211487436912]}}, {"type": "Feature", "properties": {"norad_id": 40536, "name": "KOMPSAT-3A", "group": "resource", "lat": -54.89868169958055, "lon": 126.58041126874998, "alt_km": 442.7640593348724, "timestamp": "2025-12-09T11:33:54.457596+00:00", "meta": {"OBJECT_NAME": "KOMPSAT-3A", "OBJECT_ID": "2015-014A", "EPOCH": "2025-12-09T04:19:31.586016", "MEAN_MOTION": 15.43744152, "ECCENTRICITY": 0.0004531, "INCLINATION": 97.6791, "RA_OF_ASC_NODE": 317.3303, "ARG_OF_PERICENTER": 134.3186, "MEAN_ANOMALY": 225.8433, "EPHEMERIS_TYPE": 0, "CLASSIFICATION_TYPE": "U", "NORAD_CAT_ID": 40536, "ELEMENT_SET_NO": 999, "REV_AT_EPOCH": 59240, "BSTAR": 0.00051151, "MEAN_MOTION_DOT": 0.00023067, "MEAN_MOTION_DDOT": 0}, "tle": {"line1": "1 40536U 15014A   25343.18022669  .00023067  00000+0  51151-3 0  9993", "line2": "2 40536  97.6791 317.3303 0004531 134.3186 225.8433 15.43744152592401"}}, "geometry": {"type": "Point", "coordinates": [126.58041126874998, -54.89868169958055]}}]}